[
    {
        "Altitude(m)": 605459.0281637945,
        "Argument of Periapsis(deg)": 0.0,
        "Eccentricity": 0.0,
        "Inclination(deg)": 60.0,
        "Latitude(deg)": 27.98821194286255,
        "Longitude(deg)": -162.20136291775748,
        "Mean Anomaly(deg)": 32.72730000000001,
        "RAAN(deg)": 280.0,
        "Satellite Name": "Test1 1234",
        "Satellite Number": 1234,
        "Semi-Major Axis(m)": 6980739.136638005,
        "Time(s)": 0
    },
    {
        "Altitude(m)": 605535.8189824705,
        "Argument of Periapsis(deg)": 0.00010418945913296404,
        "Eccentricity": 0.0,
        "Inclination(deg)": 60.0,
        "Latitude(deg)": 28.50134083313077,
        "Longitude(deg)": -161.84441671230624,
        "Mean Anomaly(deg)": 33.34740614546182,
        "RAAN(deg)": 279.99957995086027,
        "Satellite Name": "Test1 1234",
        "Satellite Number": 1234,
        "Semi-Major Axis(m)": 6980739.136638005,
        "Time(s)": 10
    }
]